ORBCOMM FM115           
1 41186U 15081H   25318.53645021  .00001914  00000+0  40513-3 0  9990
2 41186  46.9985  44.3363 0000703 317.7276  42.3557 14.62838602529786
ORBCOMM FM108           
1 41187U 15081J   25318.48936345  .00002130  00000+0  49058-3 0  9991
2 41187  47.0031 117.0068 0002833 276.0133  84.0430 14.58493355528730
ORBCOMM FM117           
1 41188U 15081K   25318.72967515  .00001068  00000+0  26410-3 0  9998
2 41188  47.0001 114.5844 0003260 287.1676  72.8852 14.58492451528810
ORBCOMM FM116           
1 41189U 15081L   25318.09455817  .00003111  00000+0  69813-3 0  9991
2 41189  47.0006 207.3687 0001302 137.4643 222.6344 14.58583602527536
